[{"OBJECT_NAME":"LEMUR-2-PETERG","OBJECT_ID":"2017-042S","EPOCH":"2026-03-09T11:34:35.656032","MEAN_MOTION":15.29611459,"ECCENTRICITY":0.00037,"INCLINATION":97.398,"RA_OF_ASC_NODE":253.6596,"ARG_OF_PERICENTER":341.6938,"MEAN_ANOMALY":18.4169,"EPHEMERIS_TYPE":0,"CLASSIFICATION_TYPE":"U","NORAD_CAT_ID":42841,"ELEMENT_SET_NO":999,"REV_AT_EPOCH":47317,"BSTAR":0.00081076471,"MEAN_MOTION_DOT":0.0002324,"MEAN_MOTION_DDOT":0},{"OBJECT_NAME":"STARLINK-32509","OBJECT_ID":"2024-216L","EPOCH":"2026-03-09T22:34:20.726688","MEAN_MOTION":15.27606457,"ECCENTRICITY":0.00022668,"INCLINATION":43.0015,"RA_OF_ASC_NODE":254.9348,"ARG_OF_PERICENTER":263.1184,"MEAN_ANOMALY":96.941,"EPHEMERIS_TYPE":0,"CLASSIFICATION_TYPE":"U","NORAD_CAT_ID":62042,"ELEMENT_SET_NO":999,"REV_AT_EPOCH":7391,"BSTAR":0.00099152356,"MEAN_MOTION_DOT":0.00027146,"MEAN_MOTION_DDOT":0}]
